{
  "type": "FeatureCollection",
  "features": [
    {
      "type": "Feature",
      "properties": {
        "norad_id": 38091,
        "name": "BEIDOU-2 G5 (C05)",
        "group": "gnss",
        "lat": 0.595080758792136,
        "lon": -120.5264945391153,
        "alt_km": 35761.541175049795,
        "timestamp": "2025-12-24T05:51:19.851293+00:00",
        "meta_object_name": "BEIDOU-2 G5 (C05)",
        "meta_object_id": "2012-008A",
        "meta_epoch": "2025-12-23T21:58:16.146624",
        "meta_mean_motion": 1.00269678,
        "meta_eccentricity": 0.00130707,
        "meta_inclination": 3.1353,
        "meta_ra_of_asc_node": 70.6685,
        "meta_arg_of_pericenter": 232.13,
        "meta_mean_anomaly": 178.2088,
        "meta_ephemeris_type": 0,
        "meta_classification_type": "U",
        "meta_norad_cat_id": 38091,
        "meta_element_set_no": 999,
        "meta_rev_at_epoch": 5061,
        "meta_bstar": 0,
        "meta_mean_motion_dot": 7.7e-07,
        "meta_mean_motion_ddot": 0,
        "tle_line1": "1 38091U 12008A   25357.91546466  .00000077  00000+0  00000+0 0  9997",
        "tle_line2": "2 38091   3.1353  70.6685 0013070 232.1300 178.2088  1.00269678 50617"
      },
      "geometry": {
        "type": "Point",
        "coordinates": [
          -120.5264945391153,
          0.595080758792136
        ]
      }
    },
    {
      "type": "Feature",
      "properties": {
        "norad_id": 38250,
        "name": "BEIDOU-2 M3 (C11)",
        "group": "gnss",
        "lat": 50.81453618218519,
        "lon": 6.844959532881044,
        "alt_km": 21582.540040710628,
        "timestamp": "2025-12-24T05:51:19.851305+00:00",
        "meta_object_name": "BEIDOU-2 M3 (C11)",
        "meta_object_id": "2012-018A",
        "meta_epoch": "2025-12-23T14:28:50.284992",
        "meta_mean_motion": 1.86230163,
        "meta_eccentricity": 0.00241022,
        "meta_inclination": 55.911,
        "meta_ra_of_asc_node": 310.7927,
        "meta_arg_of_pericenter": 275.3746,
        "meta_mean_anomaly": 84.3517,
        "meta_ephemeris_type": 0,
        "meta_classification_type": "U",
        "meta_norad_cat_id": 38250,
        "meta_element_set_no": 999,
        "meta_rev_at_epoch": 9267,
        "meta_bstar": 0,
        "meta_mean_motion_dot": -5.4e-07,
        "meta_mean_motion_ddot": 0,
        "tle_line1": "1 38250U 12018A   25357.60335978 -.00000054  00000+0  00000+0 0  9991",
        "tle_line2": "2 38250  55.9110 310.7927 0024102 275.3746  84.3517  1.86230163 92675"
      },
      "geometry": {
        "type": "Point",
        "coordinates": [
          6.844959532881044,
          50.81453618218519
        ]
      }
    },
    {
      "type": "Feature",
      "properties": {
        "norad_id": 38251,
        "name": "BEIDOU-2 M4 (C12)",
        "group": "gnss",
        "lat": 48.64572288867429,
        "lon": 79.49458884454434,
        "alt_km": 21563.434804634777,
        "timestamp": "2025-12-24T05:51:19.851316+00:00",
        "meta_object_name": "BEIDOU-2 M4 (C12)",
        "meta_object_id": "2012-018B",
        "meta_epoch": "2025-12-21T22:11:20.549760",
        "meta_mean_motion": 1.86229896,
        "meta_eccentricity": 0.00152556,
        "meta_inclination": 55.8135,
        "meta_ra_of_asc_node": 310.0771,
        "meta_arg_of_pericenter": 279.1681,
        "meta_mean_anomaly": 80.6551,
        "meta_ephemeris_type": 0,
        "meta_classification_type": "U",
        "meta_norad_cat_id": 38251,
        "meta_element_set_no": 999,
        "meta_rev_at_epoch": 9264,
        "meta_bstar": 0,
        "meta_mean_motion_dot": -6e-07,
        "meta_mean_motion_ddot": 0,
        "tle_line1": "1 38251U 12018B   25355.92454340 -.00000060  00000+0  00000+0 0  9997",
        "tle_line2": "2 38251  55.8135 310.0771 0015255 279.1681  80.6551  1.86229896 92646"
      },
      "geometry": {
        "type": "Point",
        "coordinates": [
          79.49458884454434,
          48.64572288867429
        ]
      }
    },
    {
      "type": "Feature",
      "properties": {
        "norad_id": 38652,
        "name": "SES-5 (EGNOS/PRN 136)",
        "group": "gnss",
        "lat": -0.0500341836263155,
        "lon": -174.18533310687604,
        "alt_km": 35785.20002732072,
        "timestamp": "2025-12-24T05:51:19.851328+00:00",
        "meta_object_name": "SES-5 (EGNOS/PRN 136)",
        "meta_object_id": "2012-036A",
        "meta_epoch": "2025-12-23T21:42:55.116576",
        "meta_mean_motion": 1.00271684,
        "meta_eccentricity": 0.00018911,
        "meta_inclination": 0.0602,
        "meta_ra_of_asc_node": 303.5923,
        "meta_arg_of_pericenter": 325.7431,
        "meta_mean_anomaly": 154.0702,
        "meta_ephemeris_type": 0,
        "meta_classification_type": "U",
        "meta_norad_cat_id": 38652,
        "meta_element_set_no": 999,
        "meta_rev_at_epoch": 4270,
        "meta_bstar": 0,
        "meta_mean_motion_dot": 5.5e-07,
        "meta_mean_motion_ddot": 0,
        "tle_line1": "1 38652U 12036A   25357.90480459  .00000055  00000+0  00000+0 0  9995",
        "tle_line2": "2 38652   0.0602 303.5923 0001891 325.7431 154.0702  1.00271684 42704"
      },
      "geometry": {
        "type": "Point",
        "coordinates": [
          -174.18533310687604,
          -0.0500341836263155
        ]
      }
    },
    {
      "type": "Feature",
      "properties": {
        "norad_id": 38775,
        "name": "BEIDOU-2 M6 (C14)",
        "group": "gnss",
        "lat": -40.481600335940676,
        "lon": 34.16494662518089,
        "alt_km": 21506.58521654119,
        "timestamp": "2025-12-24T05:51:19.851339+00:00",
        "meta_object_name": "BEIDOU-2 M6 (C14)",
        "meta_object_id": "2012-050B",
        "meta_epoch": "2025-12-23T05:54:39.234816",
        "meta_mean_motion": 1.86230862,
        "meta_eccentricity": 0.00114449,
        "meta_inclination": 56.3871,
        "meta_ra_of_asc_node": 68.7189,
        "meta_arg_of_pericenter": 343.1863,
        "meta_mean_anomaly": 16.829,
        "meta_ephemeris_type": 0,
        "meta_classification_type": "U",
        "meta_norad_cat_id": 38775,
        "meta_element_set_no": 999,
        "meta_rev_at_epoch": 9003,
        "meta_bstar": 0,
        "meta_mean_motion_dot": -2.5e-07,
        "meta_mean_motion_ddot": 0,
        "tle_line1": "1 38775U 12050B   25357.24628744 -.00000025  00000+0  00000+0 0  9993",
        "tle_line2": "2 38775  56.3871  68.7189 0011444 343.1863  16.8290  1.86230862 90037"
      },
      "geometry": {
        "type": "Point",
        "coordinates": [
          34.16494662518089,
          -40.481600335940676
        ]
      }
    },
    {
      "type": "Feature",
      "properties": {
        "norad_id": 38779,
        "name": "GSAT-10 (GAGAN/PRN 128)",
        "group": "gnss",
        "lat": -0.021602115202585665,
        "lon": -96.10323283338357,
        "alt_km": 35793.69289039742,
        "timestamp": "2025-12-24T05:51:19.851351+00:00",
        "meta_object_name": "GSAT-10 (GAGAN/PRN 128)",
        "meta_object_id": "2012-051B",
        "meta_epoch": "2025-12-23T22:05:15.477792",
        "meta_mean_motion": 1.0027139,
        "meta_eccentricity": 0.00022541,
        "meta_inclination": 0.0651,
        "meta_ra_of_asc_node": 262.684,
        "meta_arg_of_pericenter": 219.6937,
        "meta_mean_anomaly": 24.6728,
        "meta_ephemeris_type": 0,
        "meta_classification_type": "U",
        "meta_norad_cat_id": 38779,
        "meta_element_set_no": 999,
        "meta_rev_at_epoch": 4834,
        "meta_bstar": 0,
        "meta_mean_motion_dot": -1.44e-06,
        "meta_mean_motion_ddot": 0,
        "tle_line1": "1 38779U 12051B   25357.92031803 -.00000144  00000+0  00000+0 0  9999",
        "tle_line2": "2 38779   0.0651 262.6840 0002254 219.6937  24.6728  1.00271390 48347"
      },
      "geometry": {
        "type": "Point",
        "coordinates": [
          -96.10323283338357,
          -0.021602115202585665
        ]
      }
    },
    {
      "type": "Feature",
      "properties": {
        "norad_id": 38833,
        "name": "GPS BIIF-3  (PRN 24)",
        "group": "gnss",
        "lat": -40.37323332843279,
        "lon": 111.84491119234765,
        "alt_km": 20398.329193564903,
        "timestamp": "2025-12-24T05:51:19.851363+00:00",
        "meta_object_name": "GPS BIIF-3  (PRN 24)",
        "meta_object_id": "2012-053A",
        "meta_epoch": "2025-12-23T07:42:27.651168",
        "meta_mean_motion": 2.00565064,
        "meta_eccentricity": 0.01760539,
        "meta_inclination": 53.5596,
        "meta_ra_of_asc_node": 150.8054,
        "meta_arg_of_pericenter": 64.149,
        "meta_mean_anomaly": 297.6308,
        "meta_ephemeris_type": 0,
        "meta_classification_type": "U",
        "meta_norad_cat_id": 38833,
        "meta_element_set_no": 999,
        "meta_rev_at_epoch": 9591,
        "meta_bstar": 0,
        "meta_mean_motion_dot": 7.4e-07,
        "meta_mean_motion_ddot": 0,
        "tle_line1": "1 38833U 12053A   25357.32115337  .00000074  00000+0  00000+0 0  9992",
        "tle_line2": "2 38833  53.5596 150.8054 0176053  64.1490 297.6308  2.00565064 95916"
      },
      "geometry": {
        "type": "Point",
        "coordinates": [
          111.84491119234765,
          -40.37323332843279
        ]
      }
    }
  ]
}